QIANFAN-89              
1 63175U 25046S   25316.80647698  .00000122  00000+0  17017-3 0  9997
2 63175  88.9756 323.1389 0015541 206.3964 153.6397 13.50976513 43362
QIANFAN-90              
1 63176U 25046T   25316.83520836  .00000052  00000+0  61655-4 0  9995
2 63176  88.9756 323.1084 0012560 202.9267 157.1324 13.50974286 43387
QIANFAN-91              
1 66033U 25233A   25316.58634341  .00001354  00000+0  56150-3 0  9996
2 66033  88.9958  65.5029 0017062 128.3146 231.9584 14.25934138  3741
QIANFAN-92              
1 66034U 25233B   25316.30451702  .00001407  00000+0  58286-3 0  9996
2 66034  88.9956  65.5347 0016667 131.5292 228.7335 14.26015467  3701
QIANFAN-93              
1 66035U 25233C   25316.79413334  .00001520  00000+0  62939-3 0  9995
2 66035  88.9958  65.4782 0016002 129.6027 230.6582 14.26102289  3775
QIANFAN-94              
1 66036U 25233D   25316.30256823  .00001422  00000+0  58794-3 0  9996
2 66036  88.9957  65.5348 0016039 130.6520 229.6071 14.26124474  3708
QIANFAN-95              
1 66037U 25233E   25316.79314054  .00001382  00000+0  57087-3 0  9990
2 66037  88.9958  65.4781 0016041 129.6804 230.5807 14.26170782  3774
QIANFAN-96              
1 66038U 25233F   25316.58260207  .00001086  00000+0  45511-3 0  9998
2 66038  88.9958  65.5024 0016425 131.4045 228.8563 14.25290205  3748
